GOSAT-GW (IBUKI GW)     
1 64694U 25141A   26176.16737808  .00000519  00000+0  99925-4 0  9996
2 64694  98.0568 113.3547 0001422  84.4691 275.6676 14.67556729 53012
IONOSFERA-M 3           
1 64876U 25155A   26176.19974520  .00000044  00000+0  39805-4 0  9994
2 64876  98.6027 137.9031 0001476 143.2399 216.8880 14.21487741 47540
IONOSFERA-M 4           
1 64877U 25155B   26176.16418507  .00000055  00000+0  44634-4 0  9998
2 64877  98.6026 137.7857 0001331 116.8267 243.3046 14.21490117 47533
MICROCARB               
1 64899U 25156A   26176.16875802  .00000506  00000+0  87468-4 0  9991
2 64899  97.9921 253.1673 0015401 241.0722 118.8941 14.72530929 49143
CO3D 3                  
1 64900U 25156B   26176.15218825  .00004909  00000+0  22969-3 0  9994
2 64900  97.4331 254.7306 0001762 121.9842 238.1565 15.20209582 50748
CO3D 4                  
1 64901U 25156C   26176.15234078  .00004900  00000+0  22928-3 0  9999
2 64901  97.4333 254.7306 0000394 189.6667 170.4561 15.20211136 50749
CO3D 2                  
1 64902U 25156D   26176.18481824  .00004654  00000+0  21793-3 0  9991
2 64902  97.4331 254.6615 0001534 102.2864 257.8543 15.20210690 50741
CO3D 1                  
1 64903U 25156E   26175.26344364  .00003529  00000+0  16597-3 0  9993
2 64903  97.4328 253.7536 0001412 111.4021 248.7365 15.20218420 50607
PRSC-S1                 
1 65055U 25164A   26176.15315552  .00003858  00000+0  26817-3 0  9998
2 65055  41.1297 242.9460 0005414  40.3216 319.7999 15.06514345 49637
SENTINEL-6B             
1 66514U 25264A   26176.12765281 -.00000065  00000+0 -17882-4 0  9997
2 66514  66.0407 118.6863 0007970 269.0391  90.9711 12.80930004 28186
CAS500-3                
1 66655U 25274F   26175.07279577  .00000992  00000+0  11301-3 0  9991
2 66655  97.7445 102.9673 0006958  92.6618 267.5395 14.88335019 31175
CSG-3                   
1 67304U 26001A   26176.09776544  .00000305  00000+0  44844-4 0  9998
2 67304  97.8888 359.5849 0001435  96.0793 264.0584 14.82158559 25633
PRSC-E03                
1 68835U 26092A   26176.07493483  .00002752  00000+0  18896-3 0  9999
2 68835  38.0019  43.1668 0002682  82.4012 277.7054 15.06705792  9144
CAS500-2                
1 69013U 26100AK  26176.18030235  .00007659  00000+0  35126-3 0  9998
2 69013  97.3978  73.8947 0009804  10.5852 349.5587 15.20676417  8024
