OBJECT_NAME,OBJECT_ID,EPOCH,MEAN_MOTION,ECCENTRICITY,INCLINATION,RA_OF_ASC_NODE,ARG_OF_PERICENTER,MEAN_ANOMALY,EPHEMERIS_TYPE,CLASSIFICATION_TYPE,NORAD_CAT_ID,ELEMENT_SET_NO,REV_AT_EPOCH,BSTAR,MEAN_MOTION_DOT,MEAN_MOTION_DDOT
GOSAT-GW (IBUKI GW),2025-141A,2026-06-25T04:01:01.466112,14.67556729,.0001422,98.0568,113.3547,84.4691,275.6676,0,U,64694,999,5301,.99925E-4,.519E-5,0
IONOSFERA-M 3,2025-155A,2026-06-25T04:47:37.985280,14.21487741,.0001476,98.6027,137.9031,143.2399,216.8880,0,U,64876,999,4754,.39805E-4,.44E-6,0
IONOSFERA-M 4,2025-155B,2026-06-25T03:56:25.590048,14.21490117,.0001331,98.6026,137.7857,116.8267,243.3046,0,U,64877,999,4753,.44634E-4,.55E-6,0
MICROCARB,2025-156A,2026-06-25T04:03:00.692928,14.72530929,.0015401,97.9921,253.1673,241.0722,118.8941,0,U,64899,999,4914,.87468E-4,.506E-5,0
CO3D 3,2025-156B,2026-06-25T03:39:09.064800,15.20209582,.0001762,97.4331,254.7306,121.9842,238.1565,0,U,64900,999,5074,.22969E-3,.4909E-4,0
CO3D 4,2025-156C,2026-06-25T03:39:22.243392,15.20211136,.0000394,97.4333,254.7306,189.6667,170.4561,0,U,64901,999,5074,.22928E-3,.49E-4,0
CO3D 2,2025-156D,2026-06-25T04:26:08.295936,15.20210690,.0001534,97.4331,254.6615,102.2864,257.8543,0,U,64902,999,5074,.21793E-3,.4654E-4,0
CO3D 1,2025-156E,2026-06-24T06:19:21.530496,15.20218420,.00014121,97.4328,253.7536,111.4021,248.7365,0,U,64903,999,5060,.16596689E-3,.3529E-4,0
PRSC-S1,2025-164A,2026-06-25T03:40:32.636928,15.06514345,.0005414,41.1297,242.9460,40.3216,319.7999,0,U,65055,999,4963,.26817E-3,.3858E-4,0
SENTINEL-6B,2025-264A,2026-06-25T03:03:49.202784,12.80930004,.000797,66.0407,118.6863,269.0391,90.9711,0,U,66514,999,2818,-.17882E-4,-.65E-6,0
CAS500-3,2025-274F,2026-06-24T01:44:49.554528,14.88335019,.00069587,97.7445,102.9673,92.6618,267.5395,0,U,66655,999,3117,.11301177E-3,.992E-5,0
CSG-3,2026-001A,2026-06-25T02:20:46.934016,14.82158559,.0001435,97.8888,359.5849,96.0793,264.0584,0,U,67304,999,2563,.44844E-4,.305E-5,0
PRSC-E03,2026-092A,2026-06-25T01:47:54.369312,15.06705792,.0002682,38.0019,43.1668,82.4012,277.7054,0,U,68835,999,914,.18896E-3,.2752E-4,0
CAS500-2,2026-100AK,2026-06-25T04:19:38.123040,15.20676417,.0009804,97.3978,73.8947,10.5852,349.5587,0,U,69013,999,802,.35126E-3,.7659E-4,0
